STARLINK-34272          
1 64274U 25120U   26185.57820225  .00058908  00000+0  17381-2 0  9997
2 64274  53.1601 293.6656 0001491  53.0012 307.1127 15.34451238 61716
STARLINK-34293          
1 64275U 25120V   26186.25005787  .00007670  00000+0  23851-3 0  9992
2 64275  53.1583 290.8425 0000949 111.1025 199.4886 15.34317776  5817
STARLINK-34350          
1 64276U 25120W   26186.30473406  .00031913  00000+0  95078-3 0  9993
2 64276  53.1573 286.8261 0000430  33.5544 326.5486 15.34428165 61971
STARLINK-34264          
1 64277U 25120X   26185.66670139  .00065727  00000+0  22140-2 0  9993
2 64277  53.1582 293.4677 0001064  79.7206 298.8669 15.30167463  5876
STARLINK-34353          
1 64278U 25120Y   26185.72320429  .00045830  00000+0  13572-2 0  9997
2 64278  53.1573 293.1441 0001173  84.0992 276.0144 15.34447389 61831
STARLINK-34377          
1 64279U 25120Z   26186.30683830  .00033834  00000+0  10070-2 0  9992
2 64279  53.1581 286.8378 0000710 324.8767  35.2188 15.34430019 61970
STARLINK-34359          
1 64280U 25120AA  26186.25005787  .00076562  00000+0  23201-2 0  9992
2 64280  53.1588 290.7938 0001375  89.4254 243.7404 15.33486237  5863
STARLINK-34366          
1 64281U 25120AB  26185.58747773  .00052985  00000+0  17854-2 0  9996
2 64281  53.1571 293.7192 0001000  84.0484 276.0631 15.30253183 61763
STARLINK-34381          
1 64282U 25120AC  26186.31437917  .00034618  00000+0  11748-2 0  9994
2 64282  53.1583 290.4319 0001467 337.4046  22.6890 15.30220122 61903
HULIANWANG DIGUI-30     
1 64283U 25121A   26186.14865914  .00000046  00000+0  74068-4 0  9993
2 64283  86.4986   7.4971 0002052  89.3505 270.7865 13.24409155 52537
HULIANWANG DIGUI-31     
1 64284U 25121B   26186.14119406  .00000040  00000+0  58728-4 0  9991
2 64284  86.5007   7.5743 0002036  89.6789 270.4579 13.24414110 52536
HULIANWANG DIGUI-32     
1 64285U 25121C   26186.13346414  .00000032  00000+0  41147-4 0  9990
2 64285  86.4948   7.3373 0001922  92.9729 267.1625 13.24409986 52531
HULIANWANG DIGUI-33     
1 64286U 25121D   26186.12591166  .00000023  00000+0  18834-4 0  9993
2 64286  86.5006   7.5629 0002032  90.6809 269.4557 13.24409615 52539
HULIANWANG DIGUI-34     
1 64287U 25121E   26186.11840011  .00000012  00000+0 -61605-5 0  9993
2 64287  86.4983   7.4712 0002320  86.7513 273.3887 13.24410341 52531
SXM-10                  
1 64290U 25122A   26185.91206581 -.00000004  00000+0  00000+0 0  9990
2 64290   0.0161  33.4889 0001885 335.8876 125.7252  1.00272103  3865
STARLINK-34448          
1 64291U 25123A   26185.48866961  .00006110  00000+0  51919-3 0  9990
2 64291  70.0001 259.9792 0003397 267.4156  92.6615 14.98344289 60331
STARLINK-34362          
1 64292U 25123B   26186.16862223  .00003711  00000+0  31856-3 0  9996
2 64292  70.0005 258.3378 0003842 269.2759  90.7960 14.98342741 60437
STARLINK-34428          
1 64293U 25123C   26185.60115035  .00008358  00000+0  70705-3 0  9995
2 64293  69.9997 259.5642 0003411 269.1278  90.9490 14.98349750 60357
STARLINK-34388          
1 64294U 25123D   26185.91009474  .00005663  00000+0  48179-3 0  9995
2 64294  70.0005 259.0346 0003780 271.1578  88.9148 14.98346792 60396
STARLINK-34424          
1 64295U 25123E   26185.91827654  .00009255  00000+0  78195-3 0  9996
2 64295  70.0005 259.0575 0004350 270.2357  89.8304 14.98351052 60399
STARLINK-34443          
1 64296U 25123F   26185.21728573 -.00002386  00000+0 -19216-3 0  9999
2 64296  69.9996 260.6323 0003158 265.9436  94.1362 14.98343241 60292
STARLINK-34369          
1 64297U 25123G   26186.16461232  .00003629  00000+0  31162-3 0  9994
2 64297  69.9996 258.3159 0003866 270.8176  89.2540 14.98344720 59212
STARLINK-34391          
1 64298U 25123H   26185.92242646  .00004823  00000+0  41156-3 0  9995
2 64298  70.0003 258.6792 0003447 269.2162  90.8602 14.98344515 59188
STARLINK-34378          
1 64299U 25123J   26186.15210201  .00009341  00000+0  78948-3 0  9993
2 64299  69.9991 258.2774 0003243 269.9441  90.1347 14.98335400 59215
STARLINK-34376          
1 64300U 25123K   26186.17696900  .00004323  00000+0  36975-3 0  9991
2 64300  70.0007 258.3671 0003686 266.9446  93.1291 14.98343397 59214
STARLINK-34372          
1 64301U 25123L   26185.62619388  .00001794  00000+0  15807-3 0  9996
2 64301  69.9996 259.6514 0003670 268.4619  91.6119 14.98340383 59136
STARLINK-34379          
1 64302U 25123M   26186.06191621  .00055844  00000+0  11828-2 0  9994
2 64302  69.9980 207.8411 0002257 267.7350  92.3574 15.44812553 60461
STARLINK-34356          
1 64303U 25123N   26185.92659924  .00006980  00000+0  59186-3 0  9991
2 64303  69.9997 258.6921 0004019 269.9068  90.1631 14.98348928 59183
STARLINK-34360          
1 64304U 25123P   26186.17296111  .00004944  00000+0  42168-3 0  9995
2 64304  70.0000 258.3462 0003408 268.8550  91.2218 14.98344640 59218
STARLINK-34383          
1 64305U 25123Q   26185.92261820  .00005898  00000+0  50143-3 0  9998
2 64305  70.0004 259.0770 0003601 270.3707  89.7040 14.98345589 59173
STARLINK-34355          
1 64306U 25123R   26185.91843660  .00004364  00000+0  37311-3 0  9995
2 64306  70.0006 259.0615 0005282 270.6298  89.4255 14.98346210 59176
STARLINK-34380          
1 64307U 25123S   26186.18130988  .00004483  00000+0  38309-3 0  9998
2 64307  70.0007 258.3751 0003197 271.2379  88.8414 14.98344357 59216
STARLINK-34374          
1 64308U 25123T   26186.16880305  .00000870  00000+0  80726-4 0  9999
2 64308  70.0013 258.3297 0003207 267.4883  92.5909 14.98334289 59212
STARLINK-34370          
1 64309U 25123U   26185.62636016  .00007859  00000+0  66536-3 0  9994
2 64309  69.9996 259.6453 0004260 269.2564  90.8107 14.98348933 59137
STARLINK-34357          
1 64310U 25123V   26185.91409822  .00004143  00000+0  35465-3 0  9991
2 64310  70.0002 259.0525 0005049 269.0723  90.9858 14.98345137 59176
STARLINK-34368          
1 64311U 25123W   26186.17279651  .00004230  00000+0  36193-3 0  9992
2 64311  70.0003 258.3423 0003307 270.3248  89.7532 14.98343823 59219
STARLINK-34384          
1 64312U 25123X   26186.16447016  .00009143  00000+0  77271-3 0  9994
2 64312  69.9996 258.3186 0003972 269.0201  91.0503 14.98343369 59215
STARLINK-34358          
1 64313U 25123Y   26186.15610251  .00006102  00000+0  51862-3 0  9997
2 64313  69.9992 258.2887 0003371 268.8350  91.2422 14.98339118 59213
STARLINK-34354          
1 64314U 25123Z   26186.21451183  .00003524  00000+0  30292-3 0  9991
2 64314  69.9998 258.0893 0003694 269.2629  90.8107 14.98337612 59220
STARLINK-34387          
1 64315U 25123AA  26185.60532522  .00008968  00000+0  75782-3 0  9991
2 64315  69.9996 259.5764 0003769 269.1179  90.9548 14.98359959 59132
STARLINK-33590          
1 64316U 25123AB  26186.21467629  .00003720  00000+0  31926-3 0  9998
2 64316  69.9999 258.0834 0003600 264.7647  95.3102 14.98343389 59228
STARLINK-11736 [DTC]    
1 64317U 25124A   26186.01679491  .00221149  00000+0  16750-2 0  9994
2 64317  42.9984  42.2994 0001352 258.6523 101.4193 15.70932988 61289
STARLINK-11673 [DTC]    
1 64318U 25124B   26185.99556220  .00283870  00000+0  21301-2 0  9992
2 64318  43.0000  42.1285 0001716 296.6816  63.3876 15.70962269 61283
STARLINK-11671 [DTC]    
1 64319U 25124C   26185.03121404  .00186130  00000+0  14185-2 0  9993
2 64319  43.0027  47.7912 0002945 271.5265  88.5265 15.70893978 61131
STARLINK-11594 [DTC]    
1 64320U 25124D   26186.02210391  .00222863  00000+0  16877-2 0  9993
2 64320  42.9990  42.3404 0001418 250.4695 109.6020 15.70931783 61281
STARLINK-11596 [DTC]    
1 64321U 25124E   26186.01150442  .00429789  00000+0  31858-2 0  9995
2 64321  43.0011  42.2557 0001421 314.5993  45.4758 15.70816542 61283
STARLINK-11747 [DTC]    
1 64322U 25124F   26185.87370487  .00248363  00000+0  18626-2 0  9997
2 64322  42.9998  42.9354 0002675 240.3622 119.6980 15.71082935 61266
STARLINK-11728 [DTC]    
1 64323U 25124G   26186.03259506  .00348182  00000+0  25897-2 0  9993
2 64323  43.0012  41.5293 0003464 291.0391  69.0106 15.70978231 61299
STARLINK-11696 [DTC]    
1 64324U 25124H   26185.97963296  .00251382  00000+0  18967-2 0  9999
2 64324  42.9997  41.9974 0001575 260.2131  99.8559 15.70929922 61286
STARLINK-11698 [DTC]    
1 64325U 25124J   26185.98586137  .00266842  00000+0  19952-2 0  9998
2 64325  43.0003  42.0466 0001502 346.5257  13.5570 15.71098681 61288
STARLINK-11674 [DTC]    
1 64327U 25124L   26185.97432246  .00354955  00000+0  26157-2 0  9998
2 64327  43.0000  41.9544 0003455 280.4379  79.6099 15.71178950 61289
STARLINK-11707 [DTC]    
1 64328U 25124M   26185.99025287  .00272229  00000+0  20464-2 0  9992
2 64328  43.0015  42.0807 0001348 283.2416  76.8301 15.70954795 61285
STARLINK-11734 [DTC]    
1 64329U 25124N   26185.96370720  .00423463  00000+0  31224-2 0  9999
2 64329  43.0012  41.8664 0001257 292.2120  67.8614 15.70961190 61286
STARLINK-34252          
1 64330U 25124P   26186.02723432  .00038759  00000+0  14086-2 0  9998
2 64330  43.0021 179.2296 0002185 275.4801  84.5801 15.27625920 59725
STARLINK-34050          
1 64331U 25124Q   26185.69002718  .00043722  00000+0  15872-2 0  9998
2 64331  42.9988 180.9905 0000973 276.2787  83.7954 15.27616977 60732
STARLINK-33782          
1 64332U 25124R   26186.00539227  .00030669  00000+0  11183-2 0  9992
2 64332  42.9963 179.0543 0000461 291.4410  68.6392 15.27612088 59721
STARLINK-34207          
1 64333U 25124S   26186.02337995  .00019738  00000+0  72429-3 0  9998
2 64333  42.9988 179.1964 0001246 260.8910  99.1800 15.27606031 59728
STARLINK-34260          
1 64334U 25124T   26186.03108807  .00020608  00000+0  75559-3 0  9993
2 64334  43.0011 179.2555 0000601 280.6843  79.3940 15.27611219 59723
STARLINK-33855          
1 64335U 25124U   26186.00155585  .00026224  00000+0  95898-3 0  9994
2 64335  43.0000 179.0223 0001588 264.1663  95.9008 15.27583969 59723
